[{"OBJECT_NAME":"STARLINK-32090","OBJECT_ID":"2024-086K","EPOCH":"2026-03-09T00:17:14.763552","MEAN_MOTION":15.27581318,"ECCENTRICITY":5.687e-5,"INCLINATION":42.9985,"RA_OF_ASC_NODE":67.5931,"ARG_OF_PERICENTER":296.4773,"MEAN_ANOMALY":63.602,"EPHEMERIS_TYPE":0,"CLASSIFICATION_TYPE":"U","NORAD_CAT_ID":59691,"ELEMENT_SET_NO":999,"REV_AT_EPOCH":10396,"BSTAR":3.950809e-5,"MEAN_MOTION_DOT":8.26e-6,"MEAN_MOTION_DDOT":0},{"OBJECT_NAME":"OBJECT M","OBJECT_ID":"2024-205M","EPOCH":"2026-03-09T22:23:47.520096","MEAN_MOTION":15.27663844,"ECCENTRICITY":0.00036602,"INCLINATION":97.3915,"RA_OF_ASC_NODE":144.193,"ARG_OF_PERICENTER":310.2554,"MEAN_ANOMALY":49.8364,"EPHEMERIS_TYPE":0,"CLASSIFICATION_TYPE":"U","NORAD_CAT_ID":61905,"ELEMENT_SET_NO":999,"REV_AT_EPOCH":7334,"BSTAR":0.00036391974,"MEAN_MOTION_DOT":9.771e-5,"MEAN_MOTION_DDOT":0}]
